ONEWEB-0362             
1 49288U 21090K   25240.90348160  .00000025  00000+0  29332-4 0  9996
2 49288  87.9274   3.0999 0001612 101.6430 258.4884 13.19727232188367
ONEWEB-0363             
1 49289U 21090L   25240.81918170  .00000052  00000+0  96834-4 0  9992
2 49289  87.9292 332.7125 0002305  99.8339 260.3054 13.20772414191715
ONEWEB-0364             
1 49290U 21090M   25240.78130713 -.00000017  00000+0 -73182-4 0  9993
2 49290  87.9287 332.7472 0002040  98.1754 261.9611 13.20771563192840
ONEWEB-0365             
1 49291U 21090N   25240.83713776  .00000020  00000+0  16494-4 0  9991
2 49291  87.9275   3.0680 0001682  96.1707 263.9618 13.19727482187868
ONEWEB-0366             
1 49292U 21090P   25240.83912458  .00000120  00000+0  28823-3 0  9999
2 49292  87.9095 347.9141 0001876 100.1997 259.9345 13.14502000189151
ONEWEB-0367             
1 49293U 21090Q   25240.81760758  .00000026  00000+0  31490-4 0  9992
2 49293  87.9294 332.7081 0001683  99.9046 260.2277 13.20772155191232
ONEWEB-0368             
1 49294U 21090R   25240.79075721 -.00000011  00000+0 -59682-4 0  9998
2 49294  87.9294 332.7494 0002306  79.9218 280.2176 13.20770268192383
ONEWEB-0369             
1 49295U 21090S   25240.90823232  .00000060  00000+0  11876-3 0  9994
2 49295  87.9275   3.0852 0001762  96.5348 263.5986 13.19726542187867
ONEWEB-0370             
1 49296U 21090T   25240.75131346  .00000069  00000+0  13885-3 0  9997
2 49296  87.9301 332.7287 0001715 109.3653 250.7666 13.20773053191265
ONEWEB-0371             
1 49297U 21090U   25240.84029622  .00000073  00000+0  14903-3 0  9998
2 49297  87.9274   3.0883 0001696  98.7060 261.4265 13.19723920187890
ONEWEB-0372             
1 49298U 21090V   25240.81588943 -.00000001  00000+0 -35035-4 0  9995
2 49298  87.9287 332.7207 0001864  96.4179 263.7167 13.20770992191243
ONEWEB-0373             
1 49299U 21090W   25240.76707832 -.00000100  00000+0 -27730-3 0  9992
2 49299  87.9296 332.7429 0001967 101.8371 258.2983 13.20771598192428
ONEWEB-0374             
1 49300U 21090X   25240.82644596  .00000231  00000+0  58964-3 0  9995
2 49300  87.9087 347.8937 0002395  93.5540 266.5864 13.14504250189159
ONEWEB-0375             
1 49301U 21090Y   25240.75446541  .00000019  00000+0  13592-4 0  9991
2 49301  87.9299 332.7246 0002515 103.0460 257.0955 13.20772986191927
ONEWEB-0376             
1 49302U 21090Z   25240.83873496  .00000096  00000+0  20710-3 0  9998
2 49302  87.9276   3.0704 0001611  92.1613 267.9704 13.19726532187891
ONEWEB-0377             
1 49303U 21090AA  25240.74041504  .00000029  00000+0  38463-4 0  9997
2 49303  87.9299 332.7215 0001946 107.2977 252.8370 13.20771080191918
ONEWEB-0378             
1 49304U 21090AB  25240.76247766  .00000104  00000+0  22326-3 0  9992
2 49304  87.9312 332.7288 0002010 100.4805 259.6555 13.20773825191181
