[{"OBJECT_NAME":"ONEWEB-0362","OBJECT_ID":"2021-090K","EPOCH":"2025-08-28T21:41:00.810240","MEAN_MOTION":13.19727232,"ECCENTRICITY":0.00016125,"INCLINATION":87.9274,"RA_OF_ASC_NODE":3.0999,"ARG_OF_PERICENTER":101.643,"MEAN_ANOMALY":258.4884,"EPHEMERIS_TYPE":0,"CLASSIFICATION_TYPE":"U","NORAD_CAT_ID":49288,"ELEMENT_SET_NO":999,"REV_AT_EPOCH":18836,"BSTAR":2.9331812e-5,"MEAN_MOTION_DOT":2.5e-7,"MEAN_MOTION_DDOT":0},{"OBJECT_NAME":"ONEWEB-0363","OBJECT_ID":"2021-090L","EPOCH":"2025-08-28T19:39:37.298880","MEAN_MOTION":13.20772414,"ECCENTRICITY":0.00023052,"INCLINATION":87.9292,"RA_OF_ASC_NODE":332.7125,"ARG_OF_PERICENTER":99.8339,"MEAN_ANOMALY":260.3054,"EPHEMERIS_TYPE":0,"CLASSIFICATION_TYPE":"U","NORAD_CAT_ID":49289,"ELEMENT_SET_NO":999,"REV_AT_EPOCH":19171,"BSTAR":9.6834002e-5,"MEAN_MOTION_DOT":5.2e-7,"MEAN_MOTION_DDOT":0},{"OBJECT_NAME":"ONEWEB-0364","OBJECT_ID":"2021-090M","EPOCH":"2025-08-28T18:45:04.936032","MEAN_MOTION":13.20771563,"ECCENTRICITY":0.00020406,"INCLINATION":87.9287,"RA_OF_ASC_NODE":332.7472,"ARG_OF_PERICENTER":98.1754,"MEAN_ANOMALY":261.9611,"EPHEMERIS_TYPE":0,"CLASSIFICATION_TYPE":"U","NORAD_CAT_ID":49290,"ELEMENT_SET_NO":999,"REV_AT_EPOCH":19284,"BSTAR":-7.318229e-5,"MEAN_MOTION_DOT":-1.7e-7,"MEAN_MOTION_DDOT":0},{"OBJECT_NAME":"ONEWEB-0365","OBJECT_ID":"2021-090N","EPOCH":"2025-08-28T20:05:28.702464","MEAN_MOTION":13.19727482,"ECCENTRICITY":0.00016822,"INCLINATION":87.9275,"RA_OF_ASC_NODE":3.068,"ARG_OF_PERICENTER":96.1707,"MEAN_ANOMALY":263.9618,"EPHEMERIS_TYPE":0,"CLASSIFICATION_TYPE":"U","NORAD_CAT_ID":49291,"ELEMENT_SET_NO":999,"REV_AT_EPOCH":18786,"BSTAR":1.649376e-5,"MEAN_MOTION_DOT":2.0e-7,"MEAN_MOTION_DDOT":0},{"OBJECT_NAME":"ONEWEB-0366","OBJECT_ID":"2021-090P","EPOCH":"2025-08-28T20:08:20.363712","MEAN_MOTION":13.14502,"ECCENTRICITY":0.00018762,"INCLINATION":87.9095,"RA_OF_ASC_NODE":347.9141,"ARG_OF_PERICENTER":100.1997,"MEAN_ANOMALY":259.9345,"EPHEMERIS_TYPE":0,"CLASSIFICATION_TYPE":"U","NORAD_CAT_ID":49292,"ELEMENT_SET_NO":999,"REV_AT_EPOCH":18915,"BSTAR":0.00028822666,"MEAN_MOTION_DOT":1.2e-6,"MEAN_MOTION_DDOT":0},{"OBJECT_NAME":"ONEWEB-0367","OBJECT_ID":"2021-090Q","EPOCH":"2025-08-28T19:37:21.294912","MEAN_MOTION":13.20772155,"ECCENTRICITY":0.00016832,"INCLINATION":87.9294,"RA_OF_ASC_NODE":332.7081,"ARG_OF_PERICENTER":99.9046,"MEAN_ANOMALY":260.2277,"EPHEMERIS_TYPE":0,"CLASSIFICATION_TYPE":"U","NORAD_CAT_ID":49293,"ELEMENT_SET_NO":999,"REV_AT_EPOCH":19123,"BSTAR":3.1490017e-5,"MEAN_MOTION_DOT":2.6e-7,"MEAN_MOTION_DDOT":0},{"OBJECT_NAME":"ONEWEB-0368","OBJECT_ID":"2021-090R","EPOCH":"2025-08-28T18:58:41.422944","MEAN_MOTION":13.20770268,"ECCENTRICITY":0.0002306,"INCLINATION":87.9294,"RA_OF_ASC_NODE":332.7494,"ARG_OF_PERICENTER":79.9218,"MEAN_ANOMALY":280.2176,"EPHEMERIS_TYPE":0,"CLASSIFICATION_TYPE":"U","NORAD_CAT_ID":49294,"ELEMENT_SET_NO":999,"REV_AT_EPOCH":19238,"BSTAR":-5.9682279e-5,"MEAN_MOTION_DOT":-1.1e-7,"MEAN_MOTION_DDOT":0},{"OBJECT_NAME":"ONEWEB-0369","OBJECT_ID":"2021-090S","EPOCH":"2025-08-28T21:47:51.272448","MEAN_MOTION":13.19726542,"ECCENTRICITY":0.00017622,"INCLINATION":87.9275,"RA_OF_ASC_NODE":3.0852,"ARG_OF_PERICENTER":96.5348,"MEAN_ANOMALY":263.5986,"EPHEMERIS_TYPE":0,"CLASSIFICATION_TYPE":"U","NORAD_CAT_ID":49295,"ELEMENT_SET_NO":999,"REV_AT_EPOCH":18786,"BSTAR":0.00011875652,"MEAN_MOTION_DOT":6.0e-7,"MEAN_MOTION_DDOT":0},{"OBJECT_NAME":"ONEWEB-0370","OBJECT_ID":"2021-090T","EPOCH":"2025-08-28T18:01:53.482944","MEAN_MOTION":13.20773053,"ECCENTRICITY":0.00017153,"INCLINATION":87.9301,"RA_OF_ASC_NODE":332.7287,"ARG_OF_PERICENTER":109.3653,"MEAN_ANOMALY":250.7666,"EPHEMERIS_TYPE":0,"CLASSIFICATION_TYPE":"U","NORAD_CAT_ID":49296,"ELEMENT_SET_NO":999,"REV_AT_EPOCH":19126,"BSTAR":0.00013885489,"MEAN_MOTION_DOT":6.9e-7,"MEAN_MOTION_DDOT":0},{"OBJECT_NAME":"ONEWEB-0371","OBJECT_ID":"2021-090U","EPOCH":"2025-08-28T20:10:01.593408","MEAN_MOTION":13.1972392,"ECCENTRICITY":0.0001696,"INCLINATION":87.9274,"RA_OF_ASC_NODE":3.0883,"ARG_OF_PERICENTER":98.706,"MEAN_ANOMALY":261.4265,"EPHEMERIS_TYPE":0,"CLASSIFICATION_TYPE":"U","NORAD_CAT_ID":49297,"ELEMENT_SET_NO":999,"REV_AT_EPOCH":18789,"BSTAR":0.00014903291,"MEAN_MOTION_DOT":7.3e-7,"MEAN_MOTION_DDOT":0},{"OBJECT_NAME":"ONEWEB-0372","OBJECT_ID":"2021-090V","EPOCH":"2025-08-28T19:34:52.846752","MEAN_MOTION":13.20770992,"ECCENTRICITY":0.00018644,"INCLINATION":87.9287,"RA_OF_ASC_NODE":332.7207,"ARG_OF_PERICENTER":96.4179,"MEAN_ANOMALY":263.7167,"EPHEMERIS_TYPE":0,"CLASSIFICATION_TYPE":"U","NORAD_CAT_ID":49298,"ELEMENT_SET_NO":999,"REV_AT_EPOCH":19124,"BSTAR":-3.5035207e-5,"MEAN_MOTION_DOT":-1.0e-8,"MEAN_MOTION_DDOT":0},{"OBJECT_NAME":"ONEWEB-0373","OBJECT_ID":"2021-090W","EPOCH":"2025-08-28T18:24:35.566848","MEAN_MOTION":13.20771598,"ECCENTRICITY":0.00019674,"INCLINATION":87.9296,"RA_OF_ASC_NODE":332.7429,"ARG_OF_PERICENTER":101.8371,"MEAN_ANOMALY":258.2983,"EPHEMERIS_TYPE":0,"CLASSIFICATION_TYPE":"U","NORAD_CAT_ID":49299,"ELEMENT_SET_NO":999,"REV_AT_EPOCH":19242,"BSTAR":-0.00027729829,"MEAN_MOTION_DOT":-1.0e-6,"MEAN_MOTION_DDOT":0},{"OBJECT_NAME":"ONEWEB-0374","OBJECT_ID":"2021-090X","EPOCH":"2025-08-28T19:50:04.930944","MEAN_MOTION":13.1450425,"ECCENTRICITY":0.00023953,"INCLINATION":87.9087,"RA_OF_ASC_NODE":347.8937,"ARG_OF_PERICENTER":93.554,"MEAN_ANOMALY":266.5864,"EPHEMERIS_TYPE":0,"CLASSIFICATION_TYPE":"U","NORAD_CAT_ID":49300,"ELEMENT_SET_NO":999,"REV_AT_EPOCH":18915,"BSTAR":0.00058963889,"MEAN_MOTION_DOT":2.31e-6,"MEAN_MOTION_DDOT":0},{"OBJECT_NAME":"ONEWEB-0375","OBJECT_ID":"2021-090Y","EPOCH":"2025-08-28T18:06:25.811424","MEAN_MOTION":13.20772986,"ECCENTRICITY":0.00025151,"INCLINATION":87.9299,"RA_OF_ASC_NODE":332.7246,"ARG_OF_PERICENTER":103.046,"MEAN_ANOMALY":257.0955,"EPHEMERIS_TYPE":0,"CLASSIFICATION_TYPE":"U","NORAD_CAT_ID":49301,"ELEMENT_SET_NO":999,"REV_AT_EPOCH":19192,"BSTAR":1.3592281e-5,"MEAN_MOTION_DOT":1.9e-7,"MEAN_MOTION_DDOT":0},{"OBJECT_NAME":"ONEWEB-0376","OBJECT_ID":"2021-090Z","EPOCH":"2025-08-28T20:07:46.700544","MEAN_MOTION":13.19726532,"ECCENTRICITY":0.00016117,"INCLINATION":87.9276,"RA_OF_ASC_NODE":3.0704,"ARG_OF_PERICENTER":92.1613,"MEAN_ANOMALY":267.9704,"EPHEMERIS_TYPE":0,"CLASSIFICATION_TYPE":"U","NORAD_CAT_ID":49302,"ELEMENT_SET_NO":999,"REV_AT_EPOCH":18789,"BSTAR":0.00020709811,"MEAN_MOTION_DOT":9.6e-7,"MEAN_MOTION_DDOT":0},{"OBJECT_NAME":"ONEWEB-0377","OBJECT_ID":"2021-090AA","EPOCH":"2025-08-28T17:46:11.859456","MEAN_MOTION":13.2077108,"ECCENTRICITY":0.00019468,"INCLINATION":87.9299,"RA_OF_ASC_NODE":332.7215,"ARG_OF_PERICENTER":107.2977,"MEAN_ANOMALY":252.837,"EPHEMERIS_TYPE":0,"CLASSIFICATION_TYPE":"U","NORAD_CAT_ID":49303,"ELEMENT_SET_NO":999,"REV_AT_EPOCH":19191,"BSTAR":3.8463292e-5,"MEAN_MOTION_DOT":2.9e-7,"MEAN_MOTION_DDOT":0},{"OBJECT_NAME":"ONEWEB-0378","OBJECT_ID":"2021-090AB","EPOCH":"2025-08-28T18:17:58.069824","MEAN_MOTION":13.20773825,"ECCENTRICITY":0.00020107,"INCLINATION":87.9312,"RA_OF_ASC_NODE":332.7288,"ARG_OF_PERICENTER":100.4805,"MEAN_ANOMALY":259.6555,"EPHEMERIS_TYPE":0,"CLASSIFICATION_TYPE":"U","NORAD_CAT_ID":49304,"ELEMENT_SET_NO":999,"REV_AT_EPOCH":19118,"BSTAR":0.00022326359,"MEAN_MOTION_DOT":1.04e-6,"MEAN_MOTION_DDOT":0}]
